STARLINK-6193           
1 56904U 23083AE  25192.27663240  .00002435  00000+0  19505-3 0  9995
2 56904  43.0049 300.7193 0001188 274.2129  85.8578 15.02585523114704
STARLINK-6183           
1 56905U 23083AF  25192.56255188  .00000616  00000+0  60682-4 0  9998
2 56905  43.0038 299.4306 0001341 268.5997  91.4692 15.02537076114747
STARLINK-6098           
1 56906U 23083AG  25192.55922295  .00000058  00000+0  19371-4 0  9997
2 56906  43.0042 299.3967 0001275 269.6037  90.4659 15.02535192114747
STARLINK-6110           
1 56907U 23083AH  25192.56033189  .00000229  00000+0  32012-4 0  9991
2 56907  43.0046 299.4084 0001449 268.2144  91.8533 15.02535599114747
STARLINK-6186           
1 56908U 23083AJ  25192.34977865  .00000570  00000+0  57226-4 0  9999
2 56908  43.0030 300.4119 0002322 147.3566 212.7421 15.02568720114718
STARLINK-5999           
1 56909U 23083AK  25192.56366330 -.00000035  00000+0  12463-4 0  9994
2 56909  43.0047 299.4298 0001459 265.5943  94.4733 15.02533754114747
STARLINK-6179           
1 56910U 23083AL  25191.61299387  .00000666  00000+0  64379-4 0  9990
2 56910  43.0046 304.3392 0001584 274.6037  85.4624 15.02532027115408
STARLINK-6116           
1 56911U 23083AM  25192.35645770  .00000368  00000+0  42287-4 0  9997
2 56911  43.0042 300.4537 0001511 273.5700  86.4970 15.02534895114711
STARLINK-5805           
1 56912U 23083AN  25191.60855167  .00000411  00000+0  45476-4 0  9990
2 56912  43.0036 304.3065 0001352 276.3022  83.7666 15.02537039114608
STARLINK-5950           
1 56913U 23083AP  25191.62187201 -.00001554  00000+0 -99969-4 0  9997
2 56913  43.0047 304.4025 0001525 268.3410  91.7258 15.02543102114606
STARLINK-5961           
1 56914U 23083AQ  25191.60189478 -.00001043  00000+0 -62115-4 0  9990
2 56914  43.0045 304.2516 0001645 268.2524  91.8130 15.02540998115405
STARLINK-5965           
1 56915U 23083AR  25192.34646829 -.00000102  00000+0  75318-5 0  9995
2 56915  43.0042 300.3796 0001325 272.1519  87.9171 15.02536220114710
STARLINK-5973           
1 56916U 23083AS  25192.58244106 -.00002507  00000+0 -17078-3 0  9993
2 56916  43.0063 298.7158 0000335 114.2426 245.8451 15.02491946114754
STARLINK-5971           
1 56917U 23083AT  25192.40295592  .00000342  00000+0  40405-4 0  9994
2 56917  43.0031 299.9493 0001730 276.4447  83.6198 15.02535377114729
STARLINK-5951           
1 56918U 23083AU  25192.59240176 -.00000020  00000+0  13603-4 0  9997
2 56918  43.0028 298.7837 0000397 176.6159 183.4686 15.02535785114751
STARLINK-5966           
1 56919U 23083AV  25191.66615069  .00000211  00000+0  30705-4 0  9995
2 56919  43.0040 303.8766 0001410 261.4137  98.6545 15.02534732115417
STARLINK-5960           
1 56920U 23083AW  25191.58839406  .00026996  00000+0  19946-2 0  9991
2 56920  43.0053 304.1502 0002297 125.1424 234.9634 15.02746644114605
STARLINK-5958           
1 56921U 23083AX  25192.32981866  .00000840  00000+0  77283-4 0  9993
2 56921  43.0043 300.2518 0001320 260.7345  99.3348 15.02537108114713
STARLINK-5937           
1 56922U 23083AY  25192.57242592 -.00000442  00000+0 -17633-4 0  9990
2 56922  43.0041 298.6379 0001505 269.7384  90.3286 15.02533854114754
STARLINK-5952           
1 56923U 23083AZ  25192.52259314 -.00000063  00000+0  10440-4 0  9993
2 56923  43.0050 299.1190 0001457 264.0852  95.9824 15.02536216114749
STARLINK-5731           
1 56924U 23083BA  25192.57353397  .00000013  00000+0  16012-4 0  9990
2 56924  43.0047 298.6427 0001484 266.2808  93.7865 15.02534027114758
STARLINK-5733           
1 56925U 23083BB  25192.57575464 -.00000046  00000+0  11673-4 0  9997
2 56925  43.0038 298.6614 0001416 269.7780  90.2900 15.02533760114754
STARLINK-5746           
1 56926U 23083BC  25192.31316997  .00000249  00000+0  33497-4 0  9996
2 56926  43.0040 300.1273 0001305 270.1092  89.9600 15.02534848114713
STARLINK-5808           
1 56927U 23083BD  25192.38831159  .00001006  00000+0  89513-4 0  9998
2 56927  43.0023 210.3776 0001411 280.1410  79.9273 15.02546545115755
STARLINK-5850           
1 57049U 23088B   25191.70195495  .00000030  00000+0  17293-4 0  9992
2 57049  43.0058 342.7905 0001465 264.4225  95.6450 15.02535096114155
STARLINK-5845           
1 57050U 23088C   25192.41545485 -.00000022  00000+0  13439-4 0  9991
2 57050  43.0054 338.6831 0001616 270.1213  89.9445 15.02533618113173
STARLINK-5839           
1 57051U 23088D   25192.41878518  .00000012  00000+0  15956-4 0  9992
2 57051  43.0045 338.7048 0001270 264.8593  95.2104 15.02534771113175
STARLINK-5860           
1 57052U 23088E   25191.69085674  .00000182  00000+0  28542-4 0  9998
2 57052  43.0058 342.7088 0001430 269.3217  90.7461 15.02534458113965
STARLINK-5865           
1 57053U 23088F   25192.40546790 -.00001463  00000+0 -93291-4 0  9998
2 57053  43.0041 338.6074 0001196 265.8163  94.2543 15.02534187113179
STARLINK-5881           
1 57054U 23088G   25192.52732082 -.00000117  00000+0  64279-5 0  9992
2 57054  43.0047 337.8011 0001154 271.5083  88.5627 15.02537085113198
STARLINK-6237           
1 57055U 23088H   25191.68198177  .00000241  00000+0  32895-4 0  9995
2 57055  43.0044 342.6364 0001125 266.6633  93.4081 15.02533231113968
STARLINK-6353           
1 57056U 23088J   25192.12956666 -.00002707  00000+0 -18539-3 0  9990
2 57056  43.0033 339.9768 0001288 277.9627  82.1069 15.02532178113131
STARLINK-6223           
1 57057U 23088K   25192.45861548  .00000114  00000+0  23494-4 0  9996
2 57057  43.0058 338.1212 0001542 272.7560  87.3106 15.02542172113185
STARLINK-6217           
1 57058U 23088L   25192.46528750 -.00000473  00000+0 -19932-4 0  9995
2 57058  43.0047 338.1927 0001258 266.8607  93.2091 15.02534135113186
STARLINK-6211           
1 57059U 23088M   25192.42544612  .00000992  00000+0  88476-4 0  9990
2 57059  43.0052 338.7431 0001498 262.1829  97.8843 15.02546821113179
STARLINK-6227           
1 57060U 23088N   25191.76399381  .00000147  00000+0  25940-4 0  9998
2 57060  43.0050 342.3831 0001406 267.8634  92.2048 15.02533383113972
STARLINK-5869           
1 57061U 23088P   25191.71737862  .00001629  00000+0  13565-3 0  9999
2 57061  43.0043 342.0425 0001413 274.7509  85.3172 15.02531388112992
STARLINK-5536           
1 57062U 23088Q   25191.64893655 -.00000821  00000+0 -45702-4 0  9999
2 57062  43.0058 329.3608 0001477 266.1888  93.8786 15.02535914114115
STARLINK-5832           
1 57063U 23088R   25191.71071521 -.00000793  00000+0 -43619-4 0  9991
2 57063  43.0033 341.9885 0000689 258.3677 101.7088 15.02536350113971
STARLINK-5822           
1 57064U 23088S   25191.68086608  .00000196  00000+0  29577-4 0  9992
2 57064  43.0055 342.6190 0001226 264.2234  95.8469 15.02533793112980
STARLINK-5830           
1 57065U 23088T   25191.76732255  .00000203  00000+0  30083-4 0  9991
2 57065  43.0045 342.4005 0001227 270.2856  89.7846 15.02534244112995
STARLINK-5827           
1 57066U 23088U   25192.44532172 -.00003041  00000+0 -21023-3 0  9992
2 57066  43.0056 338.0445 0001138 263.5920  96.4793 15.02517772113180
STARLINK-5824           
1 57067U 23088V   25192.40879152  .00000406  00000+0  45162-4 0  9992
2 57067  43.0047 338.6163 0001564 263.7542  96.3123 15.02535013113172
STARLINK-5844           
1 57068U 23088W   25191.70738706 -.00000380  00000+0 -13040-4 0  9997
2 57068  43.0049 341.9653 0001324 269.6705  90.3985 15.02537164113973
STARLINK-5821           
1 57069U 23088X   25191.69444032  .00000228  00000+0  31971-4 0  9994
2 57069  43.0044 329.7205 0001153 271.2973  88.7737 15.02537329113948
STARLINK-5828           
1 57070U 23088Y   25192.37698507 -.00000977  00000+0 -57211-4 0  9998
2 57070  43.0067 326.2476 0001643 265.0475  95.0180 15.02545108113317
STARLINK-5834           
1 57071U 23088Z   25192.36699090  .00000200  00000+0  29912-4 0  9990
2 57071  43.0053 326.1657 0001445 269.0791  90.9886 15.02536104113018
STARLINK-5843           
1 57072U 23088AA  25192.10663121 -.00000023  00000+0  13353-4 0  9995
2 57072  43.0052 327.6542 0001265 265.7448  94.3249 15.02533166113273
STARLINK-5838           
1 57073U 23088AB  25191.44518084  .00000406  00000+0  45128-4 0  9998
2 57073  43.0052 331.2893 0001318 267.8904  92.1787 15.02533761113097
STARLINK-5773           
1 57074U 23088AC  25192.43531524  .00000369  00000+0  42366-4 0  9992
2 57074  43.0039 337.9662 0001251 270.5976  89.4723 15.02532473113184
STARLINK-5542           
1 57075U 23088AD  25191.42409616 -.00000242  00000+0 -28602-5 0  9997
2 57075  43.0050 331.1319 0000997 269.1349  90.9379 15.02535208114079
STARLINK-6155           
1 57076U 23088AE  25192.43680005  .00000382  00000+0  43373-4 0  9997
2 57076  43.0050 325.8336 0001417 264.5837  95.4844 15.02534658113320
STARLINK-6194           
1 57077U 23088AF  25191.69555142  .00000271  00000+0  35129-4 0  9995
2 57077  43.0042 329.7299 0001131 270.6223  89.4489 15.02536640114280
STARLINK-6246           
1 57078U 23088AG  25192.36921106 -.00000364  00000+0 -11845-4 0  9992
2 57078  43.0039 326.1837 0001337 265.6562  94.4128 15.02533220113314
STARLINK-6245           
1 57079U 23088AH  25192.34923185  .00000316  00000+0  38436-4 0  9990
2 57079  43.0050 326.0347 0001486 271.4969  88.5703 15.02535931113307
STARLINK-6243           
1 57080U 23088AJ  25191.43297245  .00000068  00000+0  20084-4 0  9996
2 57080  43.0047 331.1977 0001195 270.6654  89.4052 15.02535324113909
STARLINK-6184           
1 57081U 23088AK  25191.68112623  .00000371  00000+0  42543-4 0  9991
2 57081  43.0054 329.6182 0001443 273.9183  86.1494 15.02533117114113
STARLINK-6248           
1 57082U 23088AL  25192.41904185 -.00001160  00000+0 -70735-4 0  9999
2 57082  43.0031 325.6971 0002896 133.0781 227.0304 15.02536327113328
STARLINK-6253           
1 57083U 23088AM  25192.40458382  .00003729  00000+0  29082-3 0  9991
2 57083  43.0060 325.5883 0001634 269.2293  90.8363 15.02553781113314
